FIRST,LAST,ADDRESS,CITY,STATE,ZIP
Alma,Adams, 2436 Rayburn House Office Building,Washington,DC,20515-3312
Robert,Aderholt, 272 Cannon House Office Building,Washington,DC,20515-0104
Pete,Aguilar, 108 Cannon House Office Building,Washington,DC,20515-0533
Mark,Alford, 328 Cannon House Office Building,Washington,DC,20515-2504
Rick,Allen, 462 Cannon House Office Building,Washington,DC,20515-1012
Gabe,Amo, 1119 Longworth House Office Building,Washington,DC,20515-3901
Mark,Amodei, 104 Cannon House Office Building,Washington,DC,20515-2802
Yassamin,Ansari, 1432 Longworth House Office Building,Washington,DC,20515-0303
Jodey,Arrington, 1111 Longworth House Office Building,Washington,DC,20515-4319
Jake,Auchincloss, 1524 Longworth House Office Building,Washington,DC,20515-2104
Brian,Babin, 2236 Rayburn House Office Building,Washington,DC,20515-4336
Don,Bacon, 2104 Rayburn House Office Building,Washington,DC,20515-2702
James,Baird, 2303 Rayburn House Office Building,Washington,DC,20515-1404
Troy,Balderson, 2429 Rayburn House Office Building,Washington,DC,20515-3512
Becca,Balint, 1510 Longworth House Office Building,Washington,DC,20515-4500
Andy,Barr, 2430 Rayburn House Office Building,Washington,DC,20515-1706
Nanette,Barragán, 2312 Rayburn House Office Building,Washington,DC,20515-0544
Tom,Barrett, 1232 Longworth House Office Building,Washington,DC,20515-2207
Michael,Baumgartner, 124 Cannon House Office Building,Washington,DC,20515-4705
Aaron,Bean, 2459 Rayburn House Office Building,Washington,DC,20515-0904
Joyce,Beatty, 2079 Rayburn House Office Building,Washington,DC,20515-3503
Nicholas,Begich, 153 Cannon House Office Building,Washington,DC,20515-0200
Wesley,Bell, 1429 Longworth House Office Building,Washington,DC,20515-2501
Cliff,Bentz, 409 Cannon House Office Building,Washington,DC,20515-3702
Ami,Bera, 172 Cannon House Office Building,Washington,DC,20515-0506
Jack,Bergman, 566 Cannon House Office Building,Washington,DC,20515-2201
Donald,Beyer, 1226 Longworth House Office Building,Washington,DC,20515-4608
Stephanie,Bice, 2402 Rayburn House Office Building,Washington,DC,20515-3605
Andy,Biggs, 464 Cannon House Office Building,Washington,DC,20515-0305
Sheri,Biggs, 1530 Longworth House Office Building,Washington,DC,20515-4003
Gus,Bilirakis, 2306 Rayburn House Office Building,Washington,DC,20515-0912
Sanford,Bishop, 2407 Rayburn House Office Building,Washington,DC,20515-1002
Lauren,Boebert, 1713 Longworth House Office Building,Washington,DC,20515-0604
Suzanne,Bonamici, 2231 Rayburn House Office Building,Washington,DC,20515-3701
Mike,Bost, 352 Cannon House Office Building,Washington,DC,20515-1312
Brendan,Boyle, 1502 Longworth House Office Building,Washington,DC,20515-3802
Josh,Brecheen, 351 Cannon House Office Building,Washington,DC,20515-3602
Robert,Bresnahan, 1133 Longworth House Office Building,Washington,DC,20515-3808
Shontel,Brown, 2455 Rayburn House Office Building,Washington,DC,20515-3511
Julia,Brownley, 2262 Rayburn House Office Building,Washington,DC,20515-0526
Vern,Buchanan, 2409 Rayburn House Office Building,Washington,DC,20515-0916
Nikki,Budzinski, 1717 Longworth House Office Building,Washington,DC,20515-1313
Tim,Burchett, 1122 Longworth House Office Building,Washington,DC,20515-4202
Eric,Burlison, 1108 Longworth House Office Building,Washington,DC,20515-2507
Janelle,Bynum, 1508 Longworth House Office Building,Washington,DC,20515-3705
Ken,Calvert, 2205 Rayburn House Office Building,Washington,DC,20515-0541
Kat,Cammack, 2421 Rayburn House Office Building,Washington,DC,20515-0903
Salud,Carbajal, 2331 Rayburn House Office Building,Washington,DC,20515-0524
Mike,Carey, 1433 Longworth House Office Building,Washington,DC,20515-3515
André,Carson, 2135 Rayburn House Office Building,Washington,DC,20515-1407
Earl,Carter, 2432 Rayburn House Office Building,Washington,DC,20515-1001
John,Carter, 2208 Rayburn House Office Building,Washington,DC,20515-4331
Troy,Carter, 442 Cannon House Office Building,Washington,DC,20515-1802
Greg,Casar, 446 Cannon House Office Building,Washington,DC,20515-4335
Ed,Case, 2210 Rayburn House Office Building,Washington,DC,20515-1101
Sean,Casten, 2440 Rayburn House Office Building,Washington,DC,20515-1306
Kathy,Castor, 2188 Rayburn House Office Building,Washington,DC,20515-0914
Joaquin,Castro, 2241 Rayburn House Office Building,Washington,DC,20515-4320
Sheila,Cherfilus-McCormick, 2442 Rayburn House Office Building,Washington,DC,20515-0920
Judy,Chu, 2423 Rayburn House Office Building,Washington,DC,20515-0528
Juan,Ciscomani, 461 Cannon House Office Building,Washington,DC,20515-0306
Gilbert,Cisneros, 2463 Rayburn House Office Building,Washington,DC,20515-0531
Katherine,Clark, 2368 Rayburn House Office Building,Washington,DC,20515-2105
Yvette,Clarke, 2058 Rayburn House Office Building,Washington,DC,20515-3209
Emanuel,Cleaver, 2217 Rayburn House Office Building,Washington,DC,20515-2505
Ben,Cline, 2443 Rayburn House Office Building,Washington,DC,20515-4606
Michael,Cloud, 304 Cannon House Office Building,Washington,DC,20515-4327
James,Clyburn, 274 Cannon House Office Building,Washington,DC,20515-4006
Andrew,Clyde, 445 Cannon House Office Building,Washington,DC,20515-1009
Steve,Cohen, 2268 Rayburn House Office Building,Washington,DC,20515-4209
Tom,Cole, 2207 Rayburn House Office Building,Washington,DC,20515-3604
Mike,Collins, 2351 Rayburn House Office Building,Washington,DC,20515-1010
James,Comer, 2410 Rayburn House Office Building,Washington,DC,20515-1701
Herbert,Conaway, 1022 Longworth House Office Building,Washington,DC,20515-3003
Gerald,Connolly, 2265 Rayburn House Office Building,Washington,DC,20515-4611
J.,Correa, 2082 Rayburn House Office Building,Washington,DC,20515-0546
Jim,Costa, 2081 Rayburn House Office Building,Washington,DC,20515-0521
Joe,Courtney, 2449 Rayburn House Office Building,Washington,DC,20515-0702
Angie,Craig, 2052 Rayburn House Office Building,Washington,DC,20515-2302
Elijah,Crane, 307 Cannon House Office Building,Washington,DC,20515-0302
Jeff,Crank, 1029 Longworth House Office Building,Washington,DC,20515-0605
Eric,Crawford, 2422 Rayburn House Office Building,Washington,DC,20515-0401
Dan,Crenshaw, 248 Cannon House Office Building,Washington,DC,20515-4302
Jasmine,Crockett, 1616 Longworth House Office Building,Washington,DC,20515-4330
Jason,Crow, 1323 Longworth House Office Building,Washington,DC,20515-0606
Henry,Cuellar, 2308 Rayburn House Office Building,Washington,DC,20515-4328
Sharice,Davids, 2435 Rayburn House Office Building,Washington,DC,20515-1603
Warren,Davidson, 2113 Rayburn House Office Building,Washington,DC,20515-3508
Danny,Davis, 2159 Rayburn House Office Building,Washington,DC,20515-1307
Donald,Davis, 1123 Longworth House Office Building,Washington,DC,20515-3301
Monica,De La Cruz, 1415 Longworth House Office Building,Washington,DC,20515-4315
Madeleine,Dean, 150 Cannon House Office Building,Washington,DC,20515-3804
Diana,DeGette, 2111 Rayburn House Office Building,Washington,DC,20515-0601
Rosa,DeLauro, 2413 Rayburn House Office Building,Washington,DC,20515-0703
Suzan,DelBene, 2311 Rayburn House Office Building,Washington,DC,20515-4701
Christopher,Deluzio, 1222 Longworth House Office Building,Washington,DC,20515-3817
Mark,DeSaulnier, 2134 Rayburn House Office Building,Washington,DC,20515-0510
Scott,DesJarlais, 2304 Rayburn House Office Building,Washington,DC,20515-4204
Maxine,Dexter, 1207 Longworth House Office Building,Washington,DC,20515-3703
Mario,Diaz-Balart, 374 Cannon House Office Building,Washington,DC,20515-0926
Debbie,Dingell, 102 Cannon House Office Building,Washington,DC,20515-2206
Lloyd,Doggett, 2307 Rayburn House Office Building,Washington,DC,20515-0001
Byron,Donalds, 1710 Longworth House Office Building,Washington,DC,20515-0919
Troy,Downing, 1529 Longworth House Office Building,Washington,DC,20515-0001
Neal,Dunn, 466 Cannon House Office Building,Washington,DC,20515-0902
Chuck,Edwards, 1505 Longworth House Office Building,Washington,DC,20515-3311
Sarah,Elfreth, 1213 Longworth House Office Building,Washington,DC,20515-2003
Jake,Ellzey, 1721 Longworth House Office Building,Washington,DC,20515-4306
Tom,Emmer, 326 Cannon House Office Building,Washington,DC,20515-2306
Veronica,Escobar, 2448 Rayburn House Office Building,Washington,DC,20515-4316
Adriano,Espaillat, 2332 Rayburn House Office Building,Washington,DC,20515-3213
Ron,Estes, 2234 Rayburn House Office Building,Washington,DC,20515-1604
Dwight,Evans, 1105 Longworth House Office Building,Washington,DC,20515-3803
Gabe,Evans, 1229 Longworth House Office Building,Washington,DC,20515-0001
Mike,Ezell, 443 Cannon House Office Building,Washington,DC,20515-2404
Pat,Fallon, 2416 Rayburn House Office Building,Washington,DC,20515-4304
Julie,Fedorchak, 1607 Longworth House Office Building,Washington,DC,20515-3400
Randy,Feenstra, 2434 Rayburn House Office Building,Washington,DC,20515-1504
Cleo,Fields, 2349 Rayburn House Office Building,Washington,DC,20515-1806
Shomari,Figures, 225 Cannon House Office Building,Washington,DC,20515-0102
Randy,Fine, 244 Cannon House Office Building,Washington,DC,20515-0906
Brad,Finstad, 2418 Rayburn House Office Building,Washington,DC,20515-2301
Michelle,Fischbach, 2229 Rayburn House Office Building,Washington,DC,20515-2307
Scott,Fitzgerald, 2444 Rayburn House Office Building,Washington,DC,20515-4905
Brian,Fitzpatrick, 271 Cannon House Office Building,Washington,DC,20515-3801
Charles,Fleischmann, 2187 Rayburn House Office Building,Washington,DC,20515-4203
Lizzie,Fletcher, 2004 Rayburn House Office Building,Washington,DC,20515-4307
Mike,Flood, 343 Cannon House Office Building,Washington,DC,20515-2701
Vince,Fong, 243 Cannon House Office Building,Washington,DC,20515-0520
Bill,Foster, 2366 Rayburn House Office Building,Washington,DC,20515-1311
Valerie,Foushee, 2452 Rayburn House Office Building,Washington,DC,20515-3304
Virginia,Foxx, 2462 Rayburn House Office Building,Washington,DC,20515-3305
Lois,Frankel, 2305 Rayburn House Office Building,Washington,DC,20515-0922
Scott,Franklin, 2301 Rayburn House Office Building,Washington,DC,20515-0918
Laura,Friedman, 1517 Longworth House Office Building,Washington,DC,20515-0530
Maxwell,Frost, 1224 Longworth House Office Building,Washington,DC,20515-0910
Russell,Fry, 345 Cannon House Office Building,Washington,DC,20515-4007
Russ,Fulcher, 1514 Longworth House Office Building,Washington,DC,20515-1201
John,Garamendi, 2428 Rayburn House Office Building,Washington,DC,20515-0508
Andrew,Garbarino, 2344 Rayburn House Office Building,Washington,DC,20515-3202
Robert,Garcia, 109 Cannon House Office Building,Washington,DC,20515-0542
Sylvia,Garcia, 2419 Rayburn House Office Building,Washington,DC,20515-4329
Jesús,García, 2334 Rayburn House Office Building,Washington,DC,20515-1304
Brandon,Gill, 1305 Longworth House Office Building,Washington,DC,20515-4326
Laura,Gillen, 428 Cannon House Office Building,Washington,DC,20515-3204
Carlos,Gimenez, 448 Cannon House Office Building,Washington,DC,20515-0001
Jared,Golden, 1107 Longworth House Office Building,Washington,DC,20515-1902
Craig,Goldman, 1716 Longworth House Office Building,Washington,DC,20515-4312
Daniel,Goldman, 245 Cannon House Office Building,Washington,DC,20515-3210
Jimmy,Gomez, 506 Cannon House Office Building,Washington,DC,20515-0534
Tony,Gonzales, 2239 Rayburn House Office Building,Washington,DC,20515-4323
Vicente,Gonzalez, 1201 Longworth House Office Building,Washington,DC,20515-4334
Lance,Gooden, 2431 Rayburn House Office Building,Washington,DC,20515-4305
Maggie,Goodlander, 223 Cannon House Office Building,Washington,DC,20515-2902
Paul,Gosar, 2057 Rayburn House Office Building,Washington,DC,20515-0309
Josh,Gottheimer, 106 Cannon House Office Building,Washington,DC,20515-3005
Sam,Graves, 1135 Longworth House Office Building,Washington,DC,20515-2506
Adam,Gray, 1230 Longworth House Office Building,Washington,DC,20515-0513
Al,Green, 2347 Rayburn House Office Building,Washington,DC,20515-4309
Mark,Green, 2446 Rayburn House Office Building,Washington,DC,20515-4207
Marjorie,Greene, 2201 Rayburn House Office Building,Washington,DC,20515-1014
H.,Griffith, 2110 Rayburn House Office Building,Washington,DC,20515-4609
Glenn,Grothman, 1211 Longworth House Office Building,Washington,DC,20515-4906
Michael,Guest, 450 Cannon House Office Building,Washington,DC,20515-2403
Brett,Guthrie, 2161 Rayburn House Office Building,Washington,DC,20515-1702
Harriet,Hageman, 1227 Longworth House Office Building,Washington,DC,20515-5000
Abraham,Hamadeh, 1722 Longworth House Office Building,Washington,DC,20515-0308
Josh,Harder, 209 Cannon House Office Building,Washington,DC,20515-0509
Mike,Haridopolos, 1039 Longworth House Office Building,Washington,DC,20515-0908
Pat,Harrigan, 1233 Longworth House Office Building,Washington,DC,20515-3310
Andy,Harris, 1536 Longworth House Office Building,Washington,DC,20515-2001
Mark,Harris, 126 Cannon House Office Building,Washington,DC,20515-3308
Diana,Harshbarger, 167 Cannon House Office Building,Washington,DC,20515-4201
Jahana,Hayes, 2049 Rayburn House Office Building,Washington,DC,20515-0705
Kevin,Hern, 171 Cannon House Office Building,Washington,DC,20515-3601
Pablo,Hernández, 1419 Longworth House Office Building,Washington,DC,20515-5401
Clay,Higgins, 572 Cannon House Office Building,Washington,DC,20515-1803
J.,Hill, 1533 Longworth House Office Building,Washington,DC,20515-0402
James,Himes, 2137 Rayburn House Office Building,Washington,DC,20515-0704
Ashley,Hinson, 2458 Rayburn House Office Building,Washington,DC,20515-1502
Steven,Horsford, 406 Cannon House Office Building,Washington,DC,20515-2804
Erin,Houchin, 342 Cannon House Office Building,Washington,DC,20515-1409
Chrissy,Houlahan, 1727 Longworth House Office Building,Washington,DC,20515-3806
Steny,Hoyer, 1705 Longworth House Office Building,Washington,DC,20515-2005
Val,Hoyle, 1620 Longworth House Office Building,Washington,DC,20515-3704
Richard,Hudson, 2112 Rayburn House Office Building,Washington,DC,20515-3309
Jared,Huffman, 2330 Rayburn House Office Building,Washington,DC,20515-0502
Bill,Huizenga, 2232 Rayburn House Office Building,Washington,DC,20515-2204
Wesley,Hunt, 1520 Longworth House Office Building,Washington,DC,20515-0001
Jeff,Hurd, 1641 Longworth House Office Building,Washington,DC,20515-0603
Darrell,Issa, 2108 Rayburn House Office Building,Washington,DC,20515-0548
Glenn,Ivey, 1610 Longworth House Office Building,Washington,DC,20515-2004
Brian,Jack, 1320 Longworth House Office Building,Washington,DC,20515-1003
Jonathan,Jackson, 1632 Longworth House Office Building,Washington,DC,20515-1301
Ronny,Jackson, 125 Cannon House Office Building,Washington,DC,20515-4313
Sara,Jacobs, 2348 Rayburn House Office Building,Washington,DC,20515-0551
John,James, 1519 Longworth House Office Building,Washington,DC,20515-2210
Pramila,Jayapal, 2346 Rayburn House Office Building,Washington,DC,20515-4707
Hakeem,Jeffries, 2267 Rayburn House Office Building,Washington,DC,20515-3208
Dusty,Johnson, 1714 Longworth House Office Building,Washington,DC,20515-4100
Henry,Johnson, 2240 Rayburn House Office Building,Washington,DC,20515-1004
Julie,Johnson, 221 Cannon House Office Building,Washington,DC,20515-4332
Mike,Johnson, 568 Cannon House Office Building,Washington,DC,20515-1804
Jim,Jordan, 2056 Rayburn House Office Building,Washington,DC,20515-3504
David,Joyce, 2065 Rayburn House Office Building,Washington,DC,20515-3514
John,Joyce, 2102 Rayburn House Office Building,Washington,DC,20515-3813
Sydney,Kamlager-Dove, 144 Cannon House Office Building,Washington,DC,20515-0537
Marcy,Kaptur, 2314 Rayburn House Office Building,Washington,DC,20515-3509
Thomas,Kean, 251 Cannon House Office Building,Washington,DC,20515-3007
William,Keating, 2372 Rayburn House Office Building,Washington,DC,20515-2109
Mike,Kelly, 1707 Longworth House Office Building,Washington,DC,20515-3816
Robin,Kelly, 2329 Rayburn House Office Building,Washington,DC,20515-1302
Trent,Kelly, 2243 Rayburn House Office Building,Washington,DC,20515-2401
Mike,Kennedy, 1626 Longworth House Office Building,Washington,DC,20515-4403
Timothy,Kennedy, 423 Cannon House Office Building,Washington,DC,20515-3226
Ro,Khanna, 306 Cannon House Office Building,Washington,DC,20515-0517
Jennifer,Kiggans, 152 Cannon House Office Building,Washington,DC,20515-4602
Kevin,Kiley, 2445 Rayburn House Office Building,Washington,DC,20515-0503
Young,Kim, 2439 Rayburn House Office Building,Washington,DC,20515-0540
Kimberlyn,King-Hinds, 425 Cannon House Office Building,Washington,DC,20515-5201
Brad,Knott, 1239 Longworth House Office Building,Washington,DC,20515-3313
Raja,Krishnamoorthi, 2367 Rayburn House Office Building,Washington,DC,20515-1308
David,Kustoff, 560 Cannon House Office Building,Washington,DC,20515-4208
Darin,LaHood, 503 Cannon House Office Building,Washington,DC,20515-1316
Nick,LaLota, 122 Cannon House Office Building,Washington,DC,20515-3201
Doug,LaMalfa, 408 Cannon House Office Building,Washington,DC,20515-0501
Greg,Landsman, 2244 Rayburn House Office Building,Washington,DC,20515-3501
Nicholas,Langworthy, 422 Cannon House Office Building,Washington,DC,20515-3223
Rick,Larsen, 2163 Rayburn House Office Building,Washington,DC,20515-4702
John,Larson, 1501 Longworth House Office Building,Washington,DC,20515-0701
George,Latimer, 1507 Longworth House Office Building,Washington,DC,20515-3216
Robert,Latta, 2470 Rayburn House Office Building,Washington,DC,20515-3505
Michael,Lawler, 324 Cannon House Office Building,Washington,DC,20515-3217
Laurel,Lee, 2464 Rayburn House Office Building,Washington,DC,20515-0915
Summer,Lee, 2437 Rayburn House Office Building,Washington,DC,20515-3812
Susie,Lee, 365 Cannon House Office Building,Washington,DC,20515-2803
Teresa,Leger Fernandez, 2417 Rayburn House Office Building,Washington,DC,20515-3103
Julia,Letlow, 142 Cannon House Office Building,Washington,DC,20515-1805
Mike,Levin, 2352 Rayburn House Office Building,Washington,DC,20515-0549
Sam,Liccardo, 1117 Longworth House Office Building,Washington,DC,20515-0516
Ted,Lieu, 2454 Rayburn House Office Building,Washington,DC,20515-0536
Zoe,Lofgren, 1401 Longworth House Office Building,Washington,DC,20515-0518
Barry,Loudermilk, 2133 Rayburn House Office Building,Washington,DC,20515-1011
Frank,Lucas, 2405 Rayburn House Office Building,Washington,DC,20515-3603
Anna Paulina,Luna, 226 Cannon House Office Building,Washington,DC,20515-0913
Morgan,Luttrell, 444 Cannon House Office Building,Washington,DC,20515-4308
Stephen,Lynch, 2109 Rayburn House Office Building,Washington,DC,20515-2108
Nancy,Mace, 1728 Longworth House Office Building,Washington,DC,20515-4001
Ryan,Mackenzie, 121 Cannon House Office Building,Washington,DC,20515-3807
Seth,Magaziner, 252 Cannon House Office Building,Washington,DC,20515-3902
Nicole,Malliotakis, 1124 Longworth House Office Building,Washington,DC,20515-3211
Celeste,Maloy, 249 Cannon House Office Building,Washington,DC,20515-4402
Tracey,Mann, 344 Cannon House Office Building,Washington,DC,20515-1601
John,Mannion, 1516 Longworth House Office Building,Washington,DC,20515-3222
Thomas,Massie, 2371 Rayburn House Office Building,Washington,DC,20515-1704
Brian,Mast, 2182 Rayburn House Office Building,Washington,DC,20515-0921
Doris,Matsui, 2206 Rayburn House Office Building,Washington,DC,20515-0507
Lucy,McBath, 2246 Rayburn House Office Building,Washington,DC,20515-1006
Sarah,McBride, 1306 Longworth House Office Building,Washington,DC,20515-0800
Michael,McCaul, 2300 Rayburn House Office Building,Washington,DC,20515-4310
Lisa,McClain, 562 Cannon House Office Building,Washington,DC,20515-2209
April,McClain Delaney, 1130 Longworth House Office Building,Washington,DC,20515-2006
Jennifer,McClellan, 1628 Longworth House Office Building,Washington,DC,20515-4604
Tom,McClintock, 2256 Rayburn House Office Building,Washington,DC,20515-0505
Betty,McCollum, 2426 Rayburn House Office Building,Washington,DC,20515-2304
Richard,McCormick, 1719 Longworth House Office Building,Washington,DC,20515-1007
Kristen,McDonald Rivet, 1408 Longworth House Office Building,Washington,DC,20515-2208
Addison,McDowell, 1032 Longworth House Office Building,Washington,DC,20515-3306
Morgan,McGarvey, 1527 Longworth House Office Building,Washington,DC,20515-1703
James,McGovern, 370 Cannon House Office Building,Washington,DC,20515-2102
John,McGuire, 1013 Longworth House Office Building,Washington,DC,20515-4605
LaMonica,McIver, 426 Cannon House Office Building,Washington,DC,20515-3010
Gregory,Meeks, 2310 Rayburn House Office Building,Washington,DC,20515-3205
Robert,Menendez, 2453 Rayburn House Office Building,Washington,DC,20515-3008
Grace,Meng, 2468 Rayburn House Office Building,Washington,DC,20515-3206
Mark,Messmer, 1208 Longworth House Office Building,Washington,DC,20515-1408
Daniel,Meuser, 350 Cannon House Office Building,Washington,DC,20515-3809
Kweisi,Mfume, 2263 Rayburn House Office Building,Washington,DC,20515-2007
Carol,Miller, 465 Cannon House Office Building,Washington,DC,20515-4801
Mary,Miller, 1740 Longworth House Office Building,Washington,DC,20515-1315
Max,Miller, 143 Cannon House Office Building,Washington,DC,20515-3507
Mariannette,Miller-Meeks, 504 Cannon House Office Building,Washington,DC,20515-1501
Cory,Mills, 346 Cannon House Office Building,Washington,DC,20515-0907
Dave,Min, 1034 Longworth House Office Building,Washington,DC,20515-0547
John,Moolenaar, 246 Cannon House Office Building,Washington,DC,20515-2202
Barry,Moore, 1511 Longworth House Office Building,Washington,DC,20515-0101
Blake,Moore, 1131 Longworth House Office Building,Washington,DC,20515-4401
Gwen,Moore, 2252 Rayburn House Office Building,Washington,DC,20515-4904
Riley,Moore, 1337 Longworth House Office Building,Washington,DC,20515-4802
Tim,Moore, 1424 Longworth House Office Building,Washington,DC,20515-0001
Nathaniel,Moran, 1605 Longworth House Office Building,Washington,DC,20515-4301
Joseph,Morelle, 570 Cannon House Office Building,Washington,DC,20515-3225
Kelly,Morrison, 1205 Longworth House Office Building,Washington,DC,20515-2303
Jared,Moskowitz, 242 Cannon House Office Building,Washington,DC,20515-0923
Seth,Moulton, 1126 Longworth House Office Building,Washington,DC,20515-2106
James,Moylan, 228 Cannon House Office Building,Washington,DC,20515-5301
Frank,Mrvan, 2441 Rayburn House Office Building,Washington,DC,20515-1401
Kevin,Mullin, 1404 Longworth House Office Building,Washington,DC,20515-0515
Gregory,Murphy, 407 Cannon House Office Building,Washington,DC,20515-3303
Jerrold,Nadler, 2132 Rayburn House Office Building,Washington,DC,20515-3212
Richard,Neal, 372 Cannon House Office Building,Washington,DC,20515-2101
Joe,Neguse, 2400 Rayburn House Office Building,Washington,DC,20515-0602
Troy,Nehls, 1104 Longworth House Office Building,Washington,DC,20515-4322
Dan,Newhouse, 460 Cannon House Office Building,Washington,DC,20515-4704
Donald,Norcross, 2427 Rayburn House Office Building,Washington,DC,20515-3001
Ralph,Norman, 569 Cannon House Office Building,Washington,DC,20515-4005
Eleanor,Norton, 2136 Rayburn House Office Building,Washington,DC,20515-5101
Zachary,Nunn, 1410 Longworth House Office Building,Washington,DC,20515-1503
Jay,Obernolte, 2433 Rayburn House Office Building,Washington,DC,20515-0523
Alexandria,Ocasio-Cortez, 250 Cannon House Office Building,Washington,DC,20515-3214
Andrew,Ogles, 151 Cannon House Office Building,Washington,DC,20515-4205
Johnny,Olszewski, 1339 Longworth House Office Building,Washington,DC,20515-2002
Ilhan,Omar, 1730 Longworth House Office Building,Washington,DC,20515-2305
Robert,Onder, 1113 Longworth House Office Building,Washington,DC,20515-2503
Burgess,Owens, 309 Cannon House Office Building,Washington,DC,20515-4404
Frank,Pallone, 2107 Rayburn House Office Building,Washington,DC,20515-3006
Gary,Palmer, 170 Cannon House Office Building,Washington,DC,20515-0106
Jimmy,Panetta, 200 Cannon House Office Building,Washington,DC,20515-0519
Chris,Pappas, 452 Cannon House Office Building,Washington,DC,20515-2901
Jimmy,Patronis, 2021 Rayburn House Office Building,Washington,DC,20515-0901
Nancy,Pelosi, 1236 Longworth House Office Building,Washington,DC,20515-0511
Marie,Perez, 1431 Longworth House Office Building,Washington,DC,20515-4703
Scott,Perry, 2160 Rayburn House Office Building,Washington,DC,20515-3810
Scott,Peters, 2369 Rayburn House Office Building,Washington,DC,20515-0550
Brittany,Pettersen, 348 Cannon House Office Building,Washington,DC,20515-0607
August,Pfluger, 2202 Rayburn House Office Building,Washington,DC,20515-4311
Chellie,Pingree, 2354 Rayburn House Office Building,Washington,DC,20515-1901
Stacey,Plaskett, 2059 Rayburn House Office Building,Washington,DC,20515-5500
Mark,Pocan, 1026 Longworth House Office Building,Washington,DC,20515-4902
Nellie,Pou, 1007 Longworth House Office Building,Washington,DC,20515-3009
Ayanna,Pressley, 402 Cannon House Office Building,Washington,DC,20515-2107
Mike,Quigley, 2083 Rayburn House Office Building,Washington,DC,20515-1305
Aumua Amata,Radewagen, 2001 Rayburn House Office Building,Washington,DC,20515-5200
Delia,Ramirez, 1523 Longworth House Office Building,Washington,DC,20515-1303
Emily,Randall, 1531 Longworth House Office Building,Washington,DC,20515-4706
Jamie,Raskin, 2242 Rayburn House Office Building,Washington,DC,20515-2008
Guy,Reschenthaler, 2209 Rayburn House Office Building,Washington,DC,20515-3814
Josh,Riley, 128 Cannon House Office Building,Washington,DC,20515-3219
Luz,Rivas, 1319 Longworth House Office Building,Washington,DC,20515-0529
Harold,Rogers, 2406 Rayburn House Office Building,Washington,DC,20515-1705
Mike,Rogers, 2469 Rayburn House Office Building,Washington,DC,20515-0103
John,Rose, 2238 Rayburn House Office Building,Washington,DC,20515-4206
Deborah,Ross, 1221 Longworth House Office Building,Washington,DC,20515-3302
David,Rouzer, 2333 Rayburn House Office Building,Washington,DC,20515-3307
Chip,Roy, 103 Cannon House Office Building,Washington,DC,20515-4321
Raul,Ruiz, 2342 Rayburn House Office Building,Washington,DC,20515-0525
Michael,Rulli, 421 Cannon House Office Building,Washington,DC,20515-3506
John,Rutherford, 1711 Longworth House Office Building,Washington,DC,20515-0905
Patrick,Ryan, 1708 Longworth House Office Building,Washington,DC,20515-3218
Maria,Salazar, 2162 Rayburn House Office Building,Washington,DC,20515-0927
Andrea,Salinas, 403 Cannon House Office Building,Washington,DC,20515-0001
Linda,Sánchez, 2309 Rayburn House Office Building,Washington,DC,20515-0538
Steve,Scalise, 266 Cannon House Office Building,Washington,DC,20515-1801
Mary Gay,Scanlon, 1214 Longworth House Office Building,Washington,DC,20515-3805
Janice,Schakowsky, 2408 Rayburn House Office Building,Washington,DC,20515-1309
Derek,Schmidt, 1223 Longworth House Office Building,Washington,DC,20515-1602
Bradley,Schneider, 300 Cannon House Office Building,Washington,DC,20515-1310
Hillary,Scholten, 1317 Longworth House Office Building,Washington,DC,20515-2203
Kim,Schrier, 1110 Longworth House Office Building,Washington,DC,20515-4708
David,Schweikert, 166 Cannon House Office Building,Washington,DC,20515-0301
Austin,Scott, 2185 Rayburn House Office Building,Washington,DC,20515-1008
David,Scott, 468 Cannon House Office Building,Washington,DC,20515-1013
Robert,Scott, 2328 Rayburn House Office Building,Washington,DC,20515-4603
Keith,Self, 1030 Longworth House Office Building,Washington,DC,20515-4303
Pete,Sessions, 2204 Rayburn House Office Building,Washington,DC,20515-4317
Terri,Sewell, 1035 Longworth House Office Building,Washington,DC,20515-0107
Brad,Sherman, 2365 Rayburn House Office Building,Washington,DC,20515-0532
Mikie,Sherrill, 1427 Longworth House Office Building,Washington,DC,20515-3011
Jefferson,Shreve, 224 Cannon House Office Building,Washington,DC,20515-1406
Lateefah,Simon, 1023 Longworth House Office Building,Washington,DC,20515-0512
Michael,Simpson, 2084 Rayburn House Office Building,Washington,DC,20515-1202
Adam,Smith, 2264 Rayburn House Office Building,Washington,DC,20515-4709
Adrian,Smith, 502 Cannon House Office Building,Washington,DC,20515-2703
Christopher,Smith, 2373 Rayburn House Office Building,Washington,DC,20515-3004
Jason,Smith, 1011 Longworth House Office Building,Washington,DC,20515-2508
Lloyd,Smucker, 302 Cannon House Office Building,Washington,DC,20515-3811
Eric,Sorensen, 1314 Longworth House Office Building,Washington,DC,20515-1317
Darren,Soto, 2353 Rayburn House Office Building,Washington,DC,20515-0909
Victoria,Spartz, 1609 Longworth House Office Building,Washington,DC,20515-1405
Melanie,Stansbury, 1421 Longworth House Office Building,Washington,DC,20515-3101
Greg,Stanton, 207 Cannon House Office Building,Washington,DC,20515-0304
Pete,Stauber, 145 Cannon House Office Building,Washington,DC,20515-2308
Elise,Stefanik, 2211 Rayburn House Office Building,Washington,DC,20515-3221
Bryan,Steil, 1526 Longworth House Office Building,Washington,DC,20515-4901
W.,Steube, 2457 Rayburn House Office Building,Washington,DC,20515-0917
Haley,Stevens, 2411 Rayburn House Office Building,Washington,DC,20515-2211
Marilyn,Strickland, 1724 Longworth House Office Building,Washington,DC,20515-4710
Dale,Strong, 449 Cannon House Office Building,Washington,DC,20515-0105
Marlin,Stutzman, 404 Cannon House Office Building,Washington,DC,20515-1403
Suhas,Subramanyam, 1009 Longworth House Office Building,Washington,DC,20515-4610
Thomas,Suozzi, 203 Cannon House Office Building,Washington,DC,20515-3203
Eric,Swalwell, 174 Cannon House Office Building,Washington,DC,20515-0514
Emilia,Sykes, 1217 Longworth House Office Building,Washington,DC,20515-3513
Mark,Takano, 2078 Rayburn House Office Building,Washington,DC,20515-0539
David,Taylor, 325 Cannon House Office Building,Washington,DC,20515-3502
Claudia,Tenney, 2230 Rayburn House Office Building,Washington,DC,20515-3224
Shri,Thanedar, 154 Cannon House Office Building,Washington,DC,20515-2213
Bennie,Thompson, 2466 Rayburn House Office Building,Washington,DC,20515-2402
Glenn,Thompson, 400 Cannon House Office Building,Washington,DC,20515-3815
Mike,Thompson, 268 Cannon House Office Building,Washington,DC,20515-0504
Thomas,Tiffany, 451 Cannon House Office Building,Washington,DC,20515-4907
William,Timmons, 267 Cannon House Office Building,Washington,DC,20515-4004
Dina,Titus, 2370 Rayburn House Office Building,Washington,DC,20515-2801
Rashida,Tlaib, 2438 Rayburn House Office Building,Washington,DC,20515-2212
Jill,Tokuda, 1027 Longworth House Office Building,Washington,DC,20515-1102
Paul,Tonko, 2269 Rayburn House Office Building,Washington,DC,20515-3220
Norma,Torres, 2227 Rayburn House Office Building,Washington,DC,20515-0535
Ritchie,Torres, 1414 Longworth House Office Building,Washington,DC,20515-3215
Lori,Trahan, 2233 Rayburn House Office Building,Washington,DC,20515-2103
Derek,Tran, 1127 Longworth House Office Building,Washington,DC,20515-0545
Michael,Turner, 2183 Rayburn House Office Building,Washington,DC,20515-3510
Lauren,Underwood, 2228 Rayburn House Office Building,Washington,DC,20515-1314
David,Valadao, 2465 Rayburn House Office Building,Washington,DC,20515-0522
Jefferson,Van Drew, 2447 Rayburn House Office Building,Washington,DC,20515-3002
Beth,Van Duyne, 1725 Longworth House Office Building,Washington,DC,20515-4324
Derrick,Van Orden, 1513 Longworth House Office Building,Washington,DC,20515-4903
Juan,Vargas, 2467 Rayburn House Office Building,Washington,DC,20515-0552
Gabe,Vasquez, 322 Cannon House Office Building,Washington,DC,20515-3102
Marc,Veasey, 2186 Rayburn House Office Building,Washington,DC,20515-4333
Nydia,Velázquez, 2302 Rayburn House Office Building,Washington,DC,20515-3207
Eugene,Vindman, 1005 Longworth House Office Building,Washington,DC,20515-4607
Ann,Wagner, 2350 Rayburn House Office Building,Washington,DC,20515-2502
Tim,Walberg, 2266 Rayburn House Office Building,Washington,DC,20515-2205
Debbie,Wasserman Schultz, 270 Cannon House Office Building,Washington,DC,20515-0925
Maxine,Waters, 2221 Rayburn House Office Building,Washington,DC,20515-0543
Bonnie,Watson Coleman, 168 Cannon House Office Building,Washington,DC,20515-3012
Randy,Weber, 107 Cannon House Office Building,Washington,DC,20515-4314
Daniel,Webster, 2184 Rayburn House Office Building,Washington,DC,20515-0911
Bruce,Westerman, 202 Cannon House Office Building,Washington,DC,20515-0404
George,Whitesides, 1504 Longworth House Office Building,Washington,DC,20515-0527
Tony,Wied, 424 Cannon House Office Building,Washington,DC,20515-4908
Nikema,Williams, 1406 Longworth House Office Building,Washington,DC,20515-1005
Roger,Williams, 2336 Rayburn House Office Building,Washington,DC,20515-4325
Frederica,Wilson, 2080 Rayburn House Office Building,Washington,DC,20515-0924
Joe,Wilson, 1436 Longworth House Office Building,Washington,DC,20515-4002
Robert,Wittman, 2055 Rayburn House Office Building,Washington,DC,20515-4601
Steve,Womack, 2412 Rayburn House Office Building,Washington,DC,20515-0403
Rudy,Yakym, 349 Cannon House Office Building,Washington,DC,20515-1402
Ryan,Zinke, 512 Cannon House Office Building,Washington,DC,20515-2600
Angela D.,Alsobrooks,374 Russell Senate Office Building,Washington,DC,20510
Tammy,Baldwin,141 Hart Senate Office Building,Washington,DC,20510
Jim,Banks,303 Hart Senate Office Building,Washington,DC,20510
John,Barrasso,307 Dirksen Senate Office Building,Washington,DC,20510
Michael F.,Bennet,261 Russell Senate Office Building,Washington,DC,20510
Marsha,Blackburn,357 Dirksen Senate Office Building,Washington,DC,20510
Richard,Blumenthal,503 Hart Senate Office Building,Washington,DC,20510
Lisa,Blunt Rochester,513 Hart Senate Office Building,Washington,DC,20510
Cory A.,Booker,306 Hart Senate Office Building,Washington,DC,20510
John,Boozman,555 Dirksen Senate Office Building,Washington,DC,20510
Katie Boyd,Britt,416 Russell Senate Office Building,Washington,DC,20510
Ted,Budd,354 Russell Senate Office Building,Washington,DC,20510
Maria,Cantwell,511 Hart Senate Office Building,Washington,DC,20510
Shelley Moore,Capito,170 Russell Senate Office Building,Washington,DC,20510
Bill,Cassidy,455 Dirksen Senate Office Building,Washington,DC,20510
Susan M.,Collins,413 Dirksen Senate Office Building,Washington,DC,20510
Christopher A.,Coons,218 Russell Senate Office Building,Washington,DC,20510
John,Cornyn,517 Hart Senate Office Building,Washington,DC,20510
Catherine,Cortez Masto,309 Hart Senate Office Building,Washington,DC,20510
Tom,Cotton,326 Russell Senate Office Building,Washington,DC,20510
Kevin,Cramer,313 Hart Senate Office Building,Washington,DC,20510
Mike,Crapo,239 Dirksen Senate Office Building,Washington,DC,20510
Ted,Cruz,167 Russell Senate Office Building,Washington,DC,20510
John R.,Curtis,B11 Russell Senate Office Building,Washington,DC,20510
Steve,Daines,320 Hart Senate Office Building,Washington,DC,20510
Tammy,Duckworth,524 Hart Senate Office Building,Washington,DC,20510
Richard J.,Durbin,711 Hart Senate Office Building,Washington,DC,20510
Joni,Ernst,260 Russell Senate Office Building,Washington,DC,20510
John,Fetterman,142 Russell Senate Office Building,Washington,DC,20510
Deb,Fischer,448 Russell Senate Office Building,Washington,DC,20510
Ruben,Gallego,302 Hart Senate Office Building,Washington,DC,20510
Kirsten E.,Gillibrand,478 Russell Senate Office Building,Washington,DC,20510
Lindsey,Graham,211 Russell Senate Office Building,Washington,DC,20510
Chuck,Grassley,135 Hart Senate Office Building,Washington,DC,20510
Bill,Hagerty,251 Russell Senate Office Building,Washington,DC,20510
Margaret Wood,Hassan,324 Hart Senate Office Building,Washington,DC,20510
Josh,Hawley,379A Russell Senate Office Building,Washington,DC,20510
Martin,Heinrich,709 Hart Senate Office Building,Washington,DC,20510
John W.,Hickenlooper,316 Hart Senate Office Building,Washington,DC,20510
Mazie K.,Hirono,109 Hart Senate Office Building,Washington,DC,20510
John,Hoeven,338 Russell Senate Office Building,Washington,DC,20510
Jon,Husted,198 Russell Senate Office Building,Washington,DC,20510
Cindy,Hyde-Smith,528 Hart Senate Office Building,Washington,DC,20510
Ron,Johnson,328 Hart Senate Office Building,Washington,DC,20510
James C.,Justice,G12 Dirksen Senate Office Building,Washington,DC,20510
Tim,Kaine,231 Russell Senate Office Building,Washington,DC,20510
Mark,Kelly,516 Hart Senate Office Building,Washington,DC,20510
John,Kennedy,437 Russell Senate Office Building,Washington,DC,20510
Andy,Kim,520 Hart Senate Office Building,Washington,DC,20510
Angus S. Jr.,King,133 Hart Senate Office Building,Washington,DC,20510
Amy,Klobuchar,425 Dirksen Senate Office Building,Washington,DC,20510
James,Lankford,731 Hart Senate Office Building,Washington,DC,20510
Mike,Lee,363 Russell Senate Office Building,Washington,DC,20510
Ben Ray,Luján,498 Russell Senate Office Building,Washington,DC,20510
Cynthia M.,Lummis,127A Russell Senate Office Building,Washington,DC,20510
Edward J.,Markey,255 Dirksen Senate Office Building,Washington,DC,20510
Roger,Marshall,479A Russell Senate Office Building,Washington,DC,20510
Mitch,McConnell,317 Russell Senate Office Building,Washington,DC,20510
David,McCormick,702 Hart Senate Office Building,Washington,DC,20510
Jeff,Merkley,531 Hart Senate Office Building,Washington,DC,20510
Ashley,Moody,B40B Dirksen Senate Office Building,Washington,DC,20510
Jerry,Moran,521 Dirksen Senate Office Building,Washington,DC,20510
Bernie,Moreno,B33 Russell Senate Office Building,Washington,DC,20510
Markwayne,Mullin,330 Hart Senate Office Building,Washington,DC,20510
Lisa,Murkowski,522 Hart Senate Office Building,Washington,DC,20510
Christopher,Murphy,136 Hart Senate Office Building,Washington,DC,20510
Patty,Murray,154 Russell Senate Office Building,Washington,DC,20510
Jon,Ossoff,317 Hart Senate Office Building,Washington,DC,20510
Alex,Padilla,331 Hart Senate Office Building,Washington,DC,20510
Rand,Paul,295 Russell Senate Office Building,Washington,DC,20510
Gary C.,Peters,724 Hart Senate Office Building,Washington,DC,20510
Jack,Reed,728 Hart Senate Office Building,Washington,DC,20510
Pete,Ricketts,139 Russell Senate Office Building,Washington,DC,20510
James E.,Risch,483 Russell Senate Office Building,Washington,DC,20510
Jacky,Rosen,713 Hart Senate Office Building,Washington,DC,20510
Mike,Rounds,716 Hart Senate Office Building,Washington,DC,20510
Bernard,Sanders,332 Dirksen Senate Office Building,Washington,DC,20510
Brian,Schatz,722 Hart Senate Office Building,Washington,DC,20510
Adam B.,Schiff,112 Hart Senate Office Building,Washington,DC,20510
Eric,Schmitt,404 Russell Senate Office Building,Washington,DC,20510
Charles E.,Schumer,322 Hart Senate Office Building,Washington,DC,20510
Rick,Scott,110 Hart Senate Office Building,Washington,DC,20510
Tim,Scott,104 Hart Senate Office Building,Washington,DC,20510
Jeanne,Shaheen,506 Hart Senate Office Building,Washington,DC,20510
Tim,Sheehy,G55 Dirksen Senate Office Building,Washington,DC,20510
Elissa,Slotkin,291 Russell Senate Office Building,Washington,DC,20510
Tina,Smith,720 Hart Senate Office Building,Washington,DC,20510
Dan,Sullivan,706 Hart Senate Office Building,Washington,DC,20510
John,Thune,511 Dirksen Senate Office Building,Washington,DC,20510
Thom,Tillis,113 Dirksen Senate Office Building,Washington,DC,20510
Tommy,Tuberville,455 Russell Senate Office Building,Washington,DC,20510
Chris,Van Hollen,730 Hart Senate Office Building,Washington,DC,20510
Mark R.,Warner,703 Hart Senate Office Building,Washington,DC,20510
Raphael G.,Warnock,717 Hart Senate Office Building,Washington,DC,20510
Elizabeth,Warren,311 Hart Senate Office Building,Washington,DC,20510
Peter,Welch,124 Russell Senate Office Building,Washington,DC,20510
Sheldon,Whitehouse,530 Hart Senate Office Building,Washington,DC,20510
Roger F.,Wicker,425 Russell Senate Office Building,Washington,DC,20510
Ron,Wyden,221 Dirksen Senate Office Building,Washington,DC,20510
Todd,Young,185 Dirksen Senate Office Building,Washington,DC,20510
